{
  "norad_id": 26410,
  "name": "CLUSTER II-FM7 (SAMBA)",
  "history": [
    {
      "epoch": "2026-03-28T19:19:19.986816",
      "apogee_km": 130324.64955133807,
      "perigee_km": 1194.5805081462904,
      "latitude_deg": -3.910637301785847,
      "longitude_deg": 138.28887423989363,
      "semi_major_axis_km": 72137.75202974219,
      "eccentricity": 0.89502421,
      "inclination_deg": 149.3509,
      "raan_deg": 37.9375,
      "arg_perigee_deg": 254.2071,
      "mean_anomaly_deg": 0.2686,
      "mean_motion_rev_day": 0.4480834
    }
  ]
}